H1 CPF 01  gfz 2022 01 01 01  5011 terrasarx 
H2 0702601  6201 31698    2022 01 01 00 59 42 2022 01 06 00 00 42   120 1 1  0 0 0
H9
10 0 59584  71982.000000  0   -5966066.095   3191273.144   1288652.170
10 0 59584  72102.000000  0   -5977545.644   3401808.066    390920.404
10 0 59584  72222.000000  0   -5881379.062   3552139.100   -513695.765
10 0 59584  72342.000000  0   -5680392.761   3637810.732  -1409274.911
10 0 59584  72462.000000  0   -5379328.955   3655577.681  -2280075.145
10 0 59584  72582.000000  0   -4984732.139   3603490.911  -3110819.326
10 0 59584  72702.000000  0   -4504801.134   3480956.694  -3886967.744
10 0 59584  72822.000000  0   -3949210.288   3288767.188  -4594972.953
10 0 59584  72942.000000  0   -3328906.482   3029103.138  -5222512.575
10 0 59584  73062.000000  0   -2655886.683   2705508.872  -5758695.596
10 0 59584  73182.000000  0   -1942962.432   2322841.758  -6194242.243
10 0 59584  73302.000000  0   -1203512.856   1887195.620  -6521633.921
10 0 59584  73422.000000  0    -451234.648   1405801.209  -6735230.561
10 0 59584  73542.000000  0     300107.650    886905.723  -6831357.696
10 0 59584  73662.000000  0    1036926.790    339633.681  -6808363.031
10 0 59584  73782.000000  0    1746053.793   -226170.328  -6666643.148
10 0 59584  73902.000000  0    2414967.834   -800114.696  -6408635.954
10 0 59584  74022.000000  0    3032012.853  -1371446.534  -6038783.802
10 0 59584  74142.000000  0    3586598.607  -1929247.811  -5563464.606
10 0 59584  74262.000000  0    4069383.819  -2462640.083  -4990893.823
10 0 59584  74382.000000  0    4472438.219  -2960995.879  -4330993.128
10 0 59584  74502.000000  0    4789378.022  -3414150.360  -3595228.529
10 0 59584  74622.000000  0    5015474.588  -3812609.412  -2796420.478
10 0 59584  74742.000000  0    5147733.360  -4147750.828  -1948526.149
10 0 59584  74862.000000  0    5184939.086  -4412012.426  -1066397.318
10 0 59584  74982.000000  0    5127666.481  -4599063.407   -165518.310
10 0 59584  75102.000000  0    4978254.166  -4703954.042    738271.316
10 0 59584  75222.000000  0    4740742.520  -4723238.115   1629063.607
10 0 59584  75342.000000  0    4420776.503  -4655064.981   2491171.294
10 0 59584  75462.000000  0    4025476.888  -4499239.373   3309412.106
10 0 59584  75582.000000  0    3563282.903  -4257247.776   4069383.152
10 0 59584  75702.000000  0    3043769.403  -3932250.300   4757719.286
10 0 59584  75822.000000  0    2477444.672  -3529037.874   5362329.538
10 0 59584  75942.000000  0    1875534.169  -3053957.889   5872608.305
10 0 59584  76062.000000  0    1249753.742  -2514808.430   6279617.866
10 0 59584  76182.000000  0     612078.940  -1920705.348   6576238.595
10 0 59584  76302.000000  0     -25485.673  -1281924.800   6757287.192
10 0 59584  76422.000000  0    -651132.081   -609723.328   6819601.987
10 0 59584  76542.000000  0   -1253466.386     83861.601   6762094.389
10 0 59584  76662.000000  0   -1821715.555    786226.757   6585766.676
10 0 59584  76782.000000  0   -2345919.582   1484431.406   6293695.608
10 0 59584  76902.000000  0   -2817106.614   2165434.777   5890982.145
10 0 59584  77022.000000  0   -3227448.118   2816339.674   5384668.328
10 0 59584  77142.000000  0   -3570392.496   3424638.629   4783620.594
10 0 59584  77262.000000  0   -3840774.120   3978457.290   4098380.247
10 0 59584  77382.000000  0   -4034895.033   4466791.311   3340982.988
10 0 59584  77502.000000  0   -4150577.564   4879731.200   2524749.118
10 0 59584  77622.000000  0   -4187185.647   5208668.670   1664047.046
10 0 59584  77742.000000  0   -4145614.604   5446479.587    774036.404
10 0 59584  77862.000000  0   -4028250.650   5587679.684   -129604.807
10 0 59584  77982.000000  0   -3838899.671   5628549.336  -1030965.546
10 0 59584  78102.000000  0   -3582685.734   5567221.432  -1914192.662
10 0 59584  78222.000000  0   -3265922.741   5403730.443  -2763778.378
10 0 59584  78342.000000  0   -2895963.101   5140023.978  -3564838.053
10 0 59584  78462.000000  0   -2481029.172   4779934.554  -4303373.246
10 0 59584  78582.000000  0   -2030030.696   4329114.852  -4966514.051
10 0 59584  78702.000000  0   -1552373.843   3794939.813  -5542736.252
10 0 59584  78822.000000  0   -1057766.348   3186378.339  -6022053.707
10 0 59584  78942.000000  0    -556021.530   2513835.111  -6396181.979
10 0 59584  79062.000000  0     -56865.918   1788967.716  -6658669.491
10 0 59584  79182.000000  0     430244.799   1024483.848  -6804997.917
10 0 59584  79302.000000  0     896300.290    233920.876  -6832652.295
10 0 59584  79422.000000  0    1332898.655   -568589.692  -6741159.587
10 0 59584  79542.000000  0    1732393.751  -1368569.384  -6532094.310
10 0 59584  79662.000000  0    2088025.840  -2151446.739  -6209054.186
10 0 59584  79782.000000  0    2394034.915  -2902816.179  -5777605.526
10 0 59584  79902.000000  0    2645754.579  -3608700.257  -5245198.964
10 0 59584  80022.000000  0    2839685.368  -4255811.244  -4621050.858
10 0 59584  80142.000000  0    2973544.018  -4831802.437  -3915992.992
10 0 59584  80262.000000  0    3046289.392  -5325508.236  -3142295.806
10 0 59584  80382.000000  0    3058124.195  -5727169.844  -2313462.730
10 0 59584  80502.000000  0    3010471.500  -6028637.322  -1443997.753
10 0 59584  80622.000000  0    2905926.433  -6223544.317   -549151.247
10 0 59584  80742.000000  0    2748182.263  -6307449.831    355352.711
10 0 59584  80862.000000  0    2541933.273  -6277941.290   1253599.277
10 0 59584  80982.000000  0    2292757.456  -6134699.296   2129771.538
10 0 59584  81102.000000  0    2006980.501  -5879518.069   2968439.332
10 0 59584  81222.000000  0    1691525.644  -5516282.412   3754838.049
10 0 59584  81342.000000  0    1353752.923  -5050904.119   4475133.306
10 0 59584  81462.000000  0    1001292.978  -4491218.805   5116666.637
10 0 59584  81582.000000  0     641878.440  -3846846.172   5668179.182
10 0 59584  81702.000000  0     283176.476  -3129014.067   6120006.828
10 0 59584  81822.000000  0     -67372.200  -2350354.166   6464242.920
10 0 59584  81942.000000  0    -402705.104  -1524674.897   6694869.607
10 0 59584  82062.000000  0    -716278.020   -666714.493   6807857.738
10 0 59584  82182.000000  0   -1002191.254    208123.569   6801233.928
10 0 59584  82302.000000  0   -1255299.967   1084047.453   6675112.791
10 0 59584  82422.000000  0   -1471306.322   1945161.381   6431694.744
10 0 59584  82542.000000  0   -1646832.657   2775753.424   6075230.235
10 0 59584  82662.000000  0   -1779474.705   3560582.818   5611949.856
10 0 59584  82782.000000  0   -1867833.341   4285161.693   5049961.341
10 0 59584  82902.000000  0   -1911525.309   4936027.938   4399114.636
10 0 59584  83022.000000  0   -1911171.918   5501002.932   3670833.892
10 0 59584  83142.000000  0   -1868365.939   5969428.369   2877919.634
10 0 59584  83262.000000  0   -1785617.924   6332376.153   2034323.543
10 0 59584  83382.000000  0   -1666281.853   6582827.590   1154899.959
10 0 59584  83502.000000  0   -1514461.438   6715815.888    255138.588
10 0 59584  83622.000000  0   -1334900.652   6728528.783   -649115.457
10 0 59584  83742.000000  0   -1132860.677   6620369.534  -1541950.586
10 0 59584  83862.000000  0    -913985.389   6392969.396  -2407680.104
10 0 59584  83982.000000  0    -684161.261   6050153.483  -3231123.925
10 0 59584  84102.000000  0    -449374.647   5597865.656  -3997876.613
10 0 59584  84222.000000  0    -215569.625   5044054.101  -4694559.234
10 0 59584  84342.000000  0      11490.101   4398519.402  -5309049.014
10 0 59584  84462.000000  0     226352.538   3672730.385  -5830683.586
10 0 59584  84582.000000  0     423998.698   2879610.809  -6250436.851
10 0 59584  84702.000000  0     599950.817   2033302.874  -6561063.525
10 0 59584  84822.000000  0     750366.531   1148913.821  -6757212.738
10 0 59584  84942.000000  0     872117.227    242248.235  -6835511.024
10 0 59584  85062.000000  0     962849.373   -670469.830  -6794614.078
10 0 59584  85182.000000  0    1021027.916  -1572881.132  -6635225.997
10 0 59584  85302.000000  0    1045961.540  -2448775.911  -6360087.288
10 0 59584  85422.000000  0    1037810.215  -3282377.611  -5973934.747
10 0 59584  85542.000000  0     997573.401  -4058625.009  -5483429.828
10 0 59584  85662.000000  0     927059.652  -4763444.333  -4897053.058
10 0 59584  85782.000000  0     828838.795  -5384007.223  -4224969.087
10 0 59584  85902.000000  0     706175.974  -5908972.020  -3478861.280
10 0 59584  86022.000000  0     562949.188  -6328701.207  -2671736.500
10 0 59584  86142.000000  0     403552.217  -6635450.515  -1817703.899
10 0 59584  86262.000000  0     232784.592  -6823525.203   -931729.256
10 0 59584  86382.000000  0      55730.862  -6889396.908    -29369.490
99
